ONEWEB-0233             
1 48795U 21045AE  24296.18936782 -.00000094  00000+0 -28487-3 0  9998
2 48795  87.9128  19.2641 0002025  91.9119 268.2244 13.15551750166129
ONEWEB-0190             
1 48796U 21045AF  24296.17590532 -.00000031  00000+0 -11516-3 0  9993
2 48796  87.9128  19.2268 0002753  97.0849 263.0594 13.15546110166204
ONEWEB-0236             
1 48797U 21045AG  24296.19332351 -.00000492  00000+0 -13422-2 0  9997
2 48797  87.9132  19.2227 0001936  95.3126 264.8225 13.15548019166093
ONEWEB-0248             
1 48798U 21045AH  24296.20601433  .00000038  00000+0  67650-4 0  9998
2 48798  87.9120  19.1991 0002381  83.8137 276.3264 13.15546970166250
ONEWEB-0225             
1 48799U 21045AJ  24296.22820203  .00000239  00000+0  60176-3 0  9997
2 48799  87.9130  19.2130 0002180  95.3505 264.7874 13.15547519166283
ONEWEB-0215             
1 48800U 21045AK  24296.19809229  .00000005  00000+0 -21927-4 0  9995
2 48800  87.9123  19.1860 0002499  88.7988 271.3429 13.15546850166132
ONEWEB-0216             
1 48801U 21045AL  24296.20759889  .00000028  00000+0  41201-4 0  9995
2 48801  87.9120  19.2266 0001952 107.0168 253.1176 13.15547026166143
ONEWEB-0239             
1 48802U 21045AM  24296.21235251  .00000110  00000+0  25869-3 0  9992
2 48802  87.9132  19.2125 0002535  81.2525 278.8893 13.15546442166207
